{
"type": "FeatureCollection",
"name": "mods_gold_occurrences",
"crs": { "type": "name", "properties": { "name": "urn:ogc:def:crs:OGC:1.3:CRS84" } },
"features": [
{ "type": "Feature", "properties": { "MODS": 1594, "Name": "Khibbat Umm Rydaym", "lon": 42.916667, "lat": 22.666667 }, "geometry": { "type": "Point", "coordinates": [ 42.916667, 22.666667 ] } },
{ "type": "Feature", "properties": { "MODS": 2189, "Name": "Jabal Farthah", "lon": 43.411667, "lat": 22.313056 }, "geometry": { "type": "Point", "coordinates": [ 43.411667, 22.313056 ] } },
{ "type": "Feature", "properties": { "MODS": 2186, "Name": "Ad Duwayhi-N2", "lon": 43.267722, "lat": 22.301583 }, "geometry": { "type": "Point", "coordinates": [ 43.267722, 22.301583 ] } },
{ "type": "Feature", "properties": { "MODS": 2297, "Name": "Ad Duwayhi-N1", "lon": 43.266556, "lat": 22.299944 }, "geometry": { "type": "Point", "coordinates": [ 43.266556, 22.299944 ] } },
{ "type": "Feature", "properties": { "MODS": 2185, "Name": "Ad Duwayhi-N", "lon": 43.260639, "lat": 22.282889 }, "geometry": { "type": "Point", "coordinates": [ 43.260639, 22.282889 ] } },
{ "type": "Feature", "properties": { "MODS": 1182, "Name": "Ad Duwayhi", "lon": 43.277833, "lat": 22.2815 }, "geometry": { "type": "Point", "coordinates": [ 43.277833, 22.2815 ] } },
{ "type": "Feature", "properties": { "MODS": 2190, "Name": "Jabal Farthah-SW", "lon": 43.342083, "lat": 22.261806 }, "geometry": { "type": "Point", "coordinates": [ 43.342083, 22.261806 ] } },
{ "type": "Feature", "properties": { "MODS": 2187, "Name": "Khibbat Samhah", "lon": 43.210556, "lat": 22.255833 }, "geometry": { "type": "Point", "coordinates": [ 43.210556, 22.255833 ] } },
{ "type": "Feature", "properties": { "MODS": 2188, "Name": "Khibbat Samhah-S", "lon": 43.211667, "lat": 22.246167 }, "geometry": { "type": "Point", "coordinates": [ 43.211667, 22.246167 ] } },
{ "type": "Feature", "properties": { "MODS": 2193, "Name": "Jabal Hadah-NW", "lon": 43.372222, "lat": 21.983333 }, "geometry": { "type": "Point", "coordinates": [ 43.372222, 21.983333 ] } },
{ "type": "Feature", "properties": { "MODS": 2192, "Name": "Jabal Hadah", "lon": 43.412056, "lat": 21.966639 }, "geometry": { "type": "Point", "coordinates": [ 43.412056, 21.966639 ] } },
{ "type": "Feature", "properties": { "MODS": 2194, "Name": "Jabal Hadah-SE", "lon": 43.441667, "lat": 21.9375 }, "geometry": { "type": "Point", "coordinates": [ 43.441667, 21.9375 ] } },
{ "type": "Feature", "properties": { "MODS": 1173, "Name": "Abar Warshah", "lon": 43.420333, "lat": 21.91 }, "geometry": { "type": "Point", "coordinates": [ 43.420333, 21.91 ] } },
{ "type": "Feature", "properties": { "MODS": 2191, "Name": "Urgub Warshah", "lon": 43.392639, "lat": 21.8695 }, "geometry": { "type": "Point", "coordinates": [ 43.392639, 21.8695 ] } },
{ "type": "Feature", "properties": { "MODS": 1595, "Name": "Jabal Shathir", "lon": 43.5, "lat": 21.666667 }, "geometry": { "type": "Point", "coordinates": [ 43.5, 21.666667 ] } },
{ "type": "Feature", "properties": { "MODS": 3185, "Name": "Jabal Shathir-S", "lon": 43.525, "lat": 21.560556 }, "geometry": { "type": "Point", "coordinates": [ 43.525, 21.560556 ] } },
{ "type": "Feature", "properties": { "MODS": 1172, "Name": "Jabal Umm Watirah", "lon": 43.491667, "lat": 21.391889 }, "geometry": { "type": "Point", "coordinates": [ 43.491667, 21.391889 ] } },
{ "type": "Feature", "properties": { "MODS": 1174, "Name": "Dahlat Shahbab", "lon": 43.763028, "lat": 21.068 }, "geometry": { "type": "Point", "coordinates": [ 43.763028, 21.068 ] } }
]
}
